STARLINK-2170           
1 47753U 21017AH  26068.64048288  .00011649  00000+0  40470-3 0  9997
2 47753  53.1613 204.1273 0001504  64.4088 295.7068 15.30209302277880
LIZZIESAT-2 (LS-2)      
1 62383U 24247G   26068.49140277  .00009388  00000+0  34517-3 0  9997
2 62383  44.9909 117.0823 0004092 327.5136  32.5495 15.28222796 67716
